IRIDIUM 36 [-]          
1 24967U 97056C   23305.87941040  .00000822  00000+0  27385-3 0  9990
2 24967  86.3975  62.0869 0002224  96.0221 264.1230 14.36481941367015
IRIDIUM 39 [-]          
1 25042U 97069D   23305.98790617  .00001155  00000+0  30848-3 0  9991
2 25042  86.3874 105.2000 0020158 122.1768 238.1394 14.47455218363364
IRIDIUM 38 [-]          
1 25043U 97069E   23306.51634486  .00000699  00000+0  22950-3 0  9990
2 25043  86.3924 122.3290 0000372 180.9026 179.2170 14.36939745361070
IRIDIUM 42 [-]          
1 25077U 97077A   23306.50924390  .00000609  00000+0  20592-3 0  9992
2 25077  86.3934 127.7799 0001441  94.9429 265.1932 14.35250551356154
IRIDIUM 44 [-]          
1 25078U 97077B   23306.16959099  .00000782  00000+0  24704-3 0  9990
2 25078  86.3913 111.4365 0002874 130.9723 229.1724 14.39044693358412
IRIDIUM 45 [-]          
1 25104U 97082A   23305.80623742  .00013463  00000+0  86203-3 0  9991
2 25104  86.3745 328.8923 0177222 346.9027  12.7628 14.96301113362639
IRIDIUM 24 [-]          
1 25105U 97082B   23305.77381516  .00000689  00000+0  20924-3 0  9992
2 25105  86.3904 331.5967 0009786 229.4051 130.6298 14.40803216357982
IRIDIUM 51 [-]          
1 25262U 98018A   23306.16066440  .00015026  00000+0  83123-3 0  9997
2 25262  86.3920 339.2067 0161255 299.1268  59.3905 15.03218591357296
